[{"OBJECT_NAME":"IRIDIUM 33 DEB","OBJECT_ID":"1997-051VM","EPOCH":"2026-02-25T12:04:53.950080","MEAN_MOTION":14.47006283,"ECCENTRICITY":0.00148253,"INCLINATION":86.3236,"RA_OF_ASC_NODE":335.417,"ARG_OF_PERICENTER":275.8181,"MEAN_ANOMALY":84.1332,"EPHEMERIS_TYPE":0,"CLASSIFICATION_TYPE":"U","NORAD_CAT_ID":36080,"ELEMENT_SET_NO":999,"REV_AT_EPOCH":48495,"BSTAR":0.00052714098,"MEAN_MOTION_DOT":1.938e-5,"MEAN_MOTION_DDOT":0},{"OBJECT_NAME":"IRIDIUM 33 DEB","OBJECT_ID":"1997-051VQ","EPOCH":"2026-03-13T12:52:54.273792","MEAN_MOTION":14.43634998,"ECCENTRICITY":0.00241582,"INCLINATION":86.3487,"RA_OF_ASC_NODE":355.0624,"ARG_OF_PERICENTER":288.8673,"MEAN_ANOMALY":70.9909,"EPHEMERIS_TYPE":0,"CLASSIFICATION_TYPE":"U","NORAD_CAT_ID":36083,"ELEMENT_SET_NO":999,"REV_AT_EPOCH":86759,"BSTAR":0.00064262505,"MEAN_MOTION_DOT":2.205e-5,"MEAN_MOTION_DDOT":0},{"OBJECT_NAME":"IRIDIUM 33 DEB","OBJECT_ID":"1997-051VU","EPOCH":"2026-03-13T05:32:14.398944","MEAN_MOTION":14.74947722,"ECCENTRICITY":0.00283721,"INCLINATION":86.2884,"RA_OF_ASC_NODE":257.8618,"ARG_OF_PERICENTER":213.0455,"MEAN_ANOMALY":146.8992,"EPHEMERIS_TYPE":0,"CLASSIFICATION_TYPE":"U","NORAD_CAT_ID":36390,"ELEMENT_SET_NO":999,"REV_AT_EPOCH":67595,"BSTAR":0.0010349627,"MEAN_MOTION_DOT":7.022e-5,"MEAN_MOTION_DDOT":0},{"OBJECT_NAME":"IRIDIUM 33 DEB","OBJECT_ID":"1997-051VZ","EPOCH":"2026-03-07T14:23:57.535872","MEAN_MOTION":14.46178896,"ECCENTRICITY":0.00078559,"INCLINATION":86.3819,"RA_OF_ASC_NODE":16.145,"ARG_OF_PERICENTER":195.1182,"MEAN_ANOMALY":164.9787,"EPHEMERIS_TYPE":0,"CLASSIFICATION_TYPE":"U","NORAD_CAT_ID":36483,"ELEMENT_SET_NO":999,"REV_AT_EPOCH":66372,"BSTAR":0.00077992175,"MEAN_MOTION_DOT":2.807e-5,"MEAN_MOTION_DDOT":0},{"OBJECT_NAME":"IRIDIUM 33 DEB","OBJECT_ID":"1997-051WG","EPOCH":"2026-03-13T15:56:44.691360","MEAN_MOTION":14.78937542,"ECCENTRICITY":0.00054347,"INCLINATION":86.3669,"RA_OF_ASC_NODE":329.3773,"ARG_OF_PERICENTER":86.0114,"MEAN_ANOMALY":274.1727,"EPHEMERIS_TYPE":0,"CLASSIFICATION_TYPE":"U","NORAD_CAT_ID":36490,"ELEMENT_SET_NO":999,"REV_AT_EPOCH":87827,"BSTAR":0.001766502,"MEAN_MOTION_DOT":0.00013065,"MEAN_MOTION_DDOT":0},{"OBJECT_NAME":"IRIDIUM 33 DEB","OBJECT_ID":"1997-051WK","EPOCH":"2026-03-13T23:37:56.126496","MEAN_MOTION":14.66769717,"ECCENTRICITY":0.00126488,"INCLINATION":86.3596,"RA_OF_ASC_NODE":331.1092,"ARG_OF_PERICENTER":44.1116,"MEAN_ANOMALY":316.1104,"EPHEMERIS_TYPE":0,"CLASSIFICATION_TYPE":"U","NORAD_CAT_ID":36493,"ELEMENT_SET_NO":999,"REV_AT_EPOCH":75855,"BSTAR":0.001199788,"MEAN_MOTION_DOT":6.717e-5,"MEAN_MOTION_DDOT":0},{"OBJECT_NAME":"IRIDIUM 33 DEB","OBJECT_ID":"1997-051XH","EPOCH":"2026-03-10T13:45:33.701472","MEAN_MOTION":14.52140234,"ECCENTRICITY":0.00225846,"INCLINATION":86.3565,"RA_OF_ASC_NODE":5.1217,"ARG_OF_PERICENTER":259.6882,"MEAN_ANOMALY":100.1777,"EPHEMERIS_TYPE":0,"CLASSIFICATION_TYPE":"U","NORAD_CAT_ID":37548,"ELEMENT_SET_NO":999,"REV_AT_EPOCH":66806,"BSTAR":0.0011357246,"MEAN_MOTION_DOT":4.635e-5,"MEAN_MOTION_DDOT":0},{"OBJECT_NAME":"IRIDIUM 33 DEB","OBJECT_ID":"1997-051XK","EPOCH":"2026-03-14T11:56:35.457504","MEAN_MOTION":14.68903509,"ECCENTRICITY":0.00041221,"INCLINATION":86.3808,"RA_OF_ASC_NODE":343.1667,"ARG_OF_PERICENTER":118.4703,"MEAN_ANOMALY":241.6928,"EPHEMERIS_TYPE":0,"CLASSIFICATION_TYPE":"U","NORAD_CAT_ID":37550,"ELEMENT_SET_NO":999,"REV_AT_EPOCH":87679,"BSTAR":0.001636843,"MEAN_MOTION_DOT":9.599e-5,"MEAN_MOTION_DDOT":0},{"OBJECT_NAME":"IRIDIUM 33 DEB","OBJECT_ID":"1997-051XX","EPOCH":"2026-03-14T13:36:49.130784","MEAN_MOTION":14.57574783,"ECCENTRICITY":0.00244054,"INCLINATION":86.3784,"RA_OF_ASC_NODE":3.529,"ARG_OF_PERICENTER":150.112,"MEAN_ANOMALY":25.8972,"EPHEMERIS_TYPE":0,"CLASSIFICATION_TYPE":"U","NORAD_CAT_ID":37562,"ELEMENT_SET_NO":999,"REV_AT_EPOCH":87665,"BSTAR":0.0013588312,"MEAN_MOTION_DOT":6.23e-5,"MEAN_MOTION_DDOT":0},{"OBJECT_NAME":"IRIDIUM 33 DEB","OBJECT_ID":"1997-051YA","EPOCH":"2026-03-12T23:26:00.809664","MEAN_MOTION":14.52030352,"ECCENTRICITY":0.00140284,"INCLINATION":86.3522,"RA_OF_ASC_NODE":330.274,"ARG_OF_PERICENTER":130.9022,"MEAN_ANOMALY":229.3401,"EPHEMERIS_TYPE":0,"CLASSIFICATION_TYPE":"U","NORAD_CAT_ID":37565,"ELEMENT_SET_NO":999,"REV_AT_EPOCH":67146,"BSTAR":0.00052478111,"MEAN_MOTION_DOT":2.143e-5,"MEAN_MOTION_DDOT":0},{"OBJECT_NAME":"IRIDIUM 33 DEB","OBJECT_ID":"1997-051YD","EPOCH":"2026-03-13T13:57:12.877920","MEAN_MOTION":14.51967984,"ECCENTRICITY":0.00923332,"INCLINATION":86.3387,"RA_OF_ASC_NODE":126.6214,"ARG_OF_PERICENTER":160.8345,"MEAN_ANOMALY":199.6374,"EPHEMERIS_TYPE":0,"CLASSIFICATION_TYPE":"U","NORAD_CAT_ID":38017,"ELEMENT_SET_NO":999,"REV_AT_EPOCH":62719,"BSTAR":0.0017679523,"MEAN_MOTION_DOT":7.568e-5,"MEAN_MOTION_DDOT":0},{"OBJECT_NAME":"IRIDIUM 33 DEB","OBJECT_ID":"1997-051YJ","EPOCH":"2026-03-06T11:38:31.181568","MEAN_MOTION":14.42063599,"ECCENTRICITY":0.0045881,"INCLINATION":86.2727,"RA_OF_ASC_NODE":339.7589,"ARG_OF_PERICENTER":129.2237,"MEAN_ANOMALY":231.305,"EPHEMERIS_TYPE":0,"CLASSIFICATION_TYPE":"U","NORAD_CAT_ID":38022,"ELEMENT_SET_NO":999,"REV_AT_EPOCH":70400,"BSTAR":0.0013484828,"MEAN_MOTION_DOT":4.504e-5,"MEAN_MOTION_DDOT":0},{"OBJECT_NAME":"IRIDIUM 33 DEB","OBJECT_ID":"1997-051YQ","EPOCH":"2026-03-14T10:03:11.425536","MEAN_MOTION":14.46519848,"ECCENTRICITY":0.00278999,"INCLINATION":86.3247,"RA_OF_ASC_NODE":320.4273,"ARG_OF_PERICENTER":173.7826,"MEAN_ANOMALY":186.3729,"EPHEMERIS_TYPE":0,"CLASSIFICATION_TYPE":"U","NORAD_CAT_ID":38028,"ELEMENT_SET_NO":999,"REV_AT_EPOCH":66820,"BSTAR":0.00037389737,"MEAN_MOTION_DOT":1.372e-5,"MEAN_MOTION_DDOT":0},{"OBJECT_NAME":"IRIDIUM 33 DEB","OBJECT_ID":"1997-051ZC","EPOCH":"2026-03-14T02:39:52.090848","MEAN_MOTION":14.27464423,"ECCENTRICITY":0.00617336,"INCLINATION":86.298,"RA_OF_ASC_NODE":9.6159,"ARG_OF_PERICENTER":256.7953,"MEAN_ANOMALY":118.3747,"EPHEMERIS_TYPE":0,"CLASSIFICATION_TYPE":"U","NORAD_CAT_ID":38228,"ELEMENT_SET_NO":999,"REV_AT_EPOCH":86085,"BSTAR":0.00038084283,"MEAN_MOTION_DOT":9.72e-6,"MEAN_MOTION_DDOT":0},{"OBJECT_NAME":"IRIDIUM 33 DEB","OBJECT_ID":"1997-051ZR","EPOCH":"2026-03-14T08:50:25.699200","MEAN_MOTION":14.55581978,"ECCENTRICITY":0.00052801,"INCLINATION":86.3224,"RA_OF_ASC_NODE":310.1711,"ARG_OF_PERICENTER":96.6475,"MEAN_ANOMALY":263.5334,"EPHEMERIS_TYPE":0,"CLASSIFICATION_TYPE":"U","NORAD_CAT_ID":38241,"ELEMENT_SET_NO":999,"REV_AT_EPOCH":61533,"BSTAR":0.00063465946,"MEAN_MOTION_DOT":2.787e-5,"MEAN_MOTION_DDOT":0},{"OBJECT_NAME":"IRIDIUM 33 DEB","OBJECT_ID":"1997-051AAB","EPOCH":"2026-03-13T10:34:33.565728","MEAN_MOTION":14.51232284,"ECCENTRICITY":0.00259536,"INCLINATION":86.3475,"RA_OF_ASC_NODE":330.5445,"ARG_OF_PERICENTER":140.601,"MEAN_ANOMALY":219.7089,"EPHEMERIS_TYPE":0,"CLASSIFICATION_TYPE":"U","NORAD_CAT_ID":38474,"ELEMENT_SET_NO":999,"REV_AT_EPOCH":66633,"BSTAR":0.00056753239,"MEAN_MOTION_DOT":2.285e-5,"MEAN_MOTION_DDOT":0}]
